{
  "type": "FeatureCollection",
  "features": [
    {
      "type": "Feature",
      "properties": {
        "norad_id": 37594,
        "name": "FENGYUN 1C DEB",
        "group": "fengyun-1c-debris",
        "lat": -61.824095320045394,
        "lon": 35.79655680297312,
        "alt_km": 812.750856854741,
        "timestamp": "2025-12-15T20:48:54.172905+00:00",
        "meta_object_name": "FENGYUN 1C DEB",
        "meta_object_id": "1999-025EKN",
        "meta_epoch": "2025-12-12T01:13:06.397536",
        "meta_mean_motion": 14.11116962,
        "meta_eccentricity": 0.00850219,
        "meta_inclination": 98.7348,
        "meta_ra_of_asc_node": 15.4051,
        "meta_arg_of_pericenter": 271.7365,
        "meta_mean_anomaly": 87.407,
        "meta_ephemeris_type": 0,
        "meta_classification_type": "U",
        "meta_norad_cat_id": 37594,
        "meta_element_set_no": 999,
        "meta_rev_at_epoch": 77752,
        "meta_bstar": 0.00036155709,
        "meta_mean_motion_dot": 6.3e-06,
        "meta_mean_motion_ddot": 0,
        "tle_line1": "1 37594U 99025EKN 25346.05076849  .00000630  00000+0  36156-3 0  9994",
        "tle_line2": "2 37594  98.7348  15.4051 0085021 271.7365  87.4070 14.11116962777528"
      },
      "geometry": {
        "type": "Point",
        "coordinates": [
          35.79655680297312,
          -61.824095320045394
        ]
      }
    },
    {
      "type": "Feature",
      "properties": {
        "norad_id": 37600,
        "name": "FENGYUN 1C DEB",
        "group": "fengyun-1c-debris",
        "lat": 19.232726553954617,
        "lon": -30.43594408961283,
        "alt_km": 1075.397134450137,
        "timestamp": "2025-12-15T20:48:54.172915+00:00",
        "meta_object_name": "FENGYUN 1C DEB",
        "meta_object_id": "1999-025EKU",
        "meta_epoch": "2025-12-12T05:13:55.637184",
        "meta_mean_motion": 13.82539982,
        "meta_eccentricity": 0.03568946,
        "meta_inclination": 98.9366,
        "meta_ra_of_asc_node": 142.947,
        "meta_arg_of_pericenter": 50.9925,
        "meta_mean_anomaly": 312.2443,
        "meta_ephemeris_type": 0,
        "meta_classification_type": "U",
        "meta_norad_cat_id": 37600,
        "meta_element_set_no": 999,
        "meta_rev_at_epoch": 88480,
        "meta_bstar": 0.0043245273,
        "meta_mean_motion_dot": 7.61e-05,
        "meta_mean_motion_ddot": 0,
        "tle_line1": "1 37600U 99025EKU 25346.21800506  .00007610  00000+0  43245-2 0  9996",
        "tle_line2": "2 37600  98.9366 142.9470 0356894  50.9925 312.2443 13.82539982884808"
      },
      "geometry": {
        "type": "Point",
        "coordinates": [
          -30.43594408961283,
          19.232726553954617
        ]
      }
    },
    {
      "type": "Feature",
      "properties": {
        "norad_id": 37683,
        "name": "FENGYUN 1C DEB",
        "group": "fengyun-1c-debris",
        "lat": -77.07893155235902,
        "lon": -53.18624565283711,
        "alt_km": 1565.6648894697146,
        "timestamp": "2025-12-15T20:48:54.172926+00:00",
        "meta_object_name": "FENGYUN 1C DEB",
        "meta_object_id": "1999-025EKY",
        "meta_epoch": "2025-12-14T13:37:20.118144",
        "meta_mean_motion": 13.31914371,
        "meta_eccentricity": 0.05852093,
        "meta_inclination": 98.002,
        "meta_ra_of_asc_node": 267.9791,
        "meta_arg_of_pericenter": 120.375,
        "meta_mean_anomaly": 49.1699,
        "meta_ephemeris_type": 0,
        "meta_classification_type": "U",
        "meta_norad_cat_id": 37683,
        "meta_element_set_no": 999,
        "meta_rev_at_epoch": 29264,
        "meta_bstar": 0.0015450592,
        "meta_mean_motion_dot": 1.925e-05,
        "meta_mean_motion_ddot": 0,
        "tle_line1": "1 37683U 99025EKY 25348.56759396  .00001925  00000+0  15451-2 0  9998",
        "tle_line2": "2 37683  98.0020 267.9791 0585209 120.3750  49.1699 13.31914371292640"
      },
      "geometry": {
        "type": "Point",
        "coordinates": [
          -53.18624565283711,
          -77.07893155235902
        ]
      }
    },
    {
      "type": "Feature",
      "properties": {
        "norad_id": 37686,
        "name": "FENGYUN 1C DEB",
        "group": "fengyun-1c-debris",
        "lat": -27.69680441866784,
        "lon": 12.722301991435543,
        "alt_km": 985.7748895757159,
        "timestamp": "2025-12-15T20:48:54.172936+00:00",
        "meta_object_name": "FENGYUN 1C DEB",
        "meta_object_id": "1999-025ELB",
        "meta_epoch": "2025-12-11T07:20:34.881792",
        "meta_mean_motion": 13.35362087,
        "meta_eccentricity": 0.03959928,
        "meta_inclination": 99.0214,
        "meta_ra_of_asc_node": 3.8986,
        "meta_arg_of_pericenter": 45.8136,
        "meta_mean_anomaly": 333.7313,
        "meta_ephemeris_type": 0,
        "meta_classification_type": "U",
        "meta_norad_cat_id": 37686,
        "meta_element_set_no": 999,
        "meta_rev_at_epoch": 60608,
        "meta_bstar": 0.00082312393,
        "meta_mean_motion_dot": 6.17e-06,
        "meta_mean_motion_ddot": 0,
        "tle_line1": "1 37686U 99025ELB 25345.30595928  .00000617  00000+0  82312-3 0  9997",
        "tle_line2": "2 37686  99.0214   3.8986 0395992  45.8136 333.7313 13.35362087606086"
      },
      "geometry": {
        "type": "Point",
        "coordinates": [
          12.722301991435543,
          -27.69680441866784
        ]
      }
    },
    {
      "type": "Feature",
      "properties": {
        "norad_id": 37687,
        "name": "FENGYUN 1C DEB",
        "group": "fengyun-1c-debris",
        "lat": -44.43392686540254,
        "lon": -163.5185759754167,
        "alt_km": 1086.8609380641383,
        "timestamp": "2025-12-15T20:48:54.172946+00:00",
        "meta_object_name": "FENGYUN 1C DEB",
        "meta_object_id": "1999-025ELC",
        "meta_epoch": "2025-12-14T21:46:20.279424",
        "meta_mean_motion": 13.85346082,
        "meta_eccentricity": 0.03333739,
        "meta_inclination": 98.2067,
        "meta_ra_of_asc_node": 23.7727,
        "meta_arg_of_pericenter": 352.7982,
        "meta_mean_anomaly": 129.6123,
        "meta_ephemeris_type": 0,
        "meta_classification_type": "U",
        "meta_norad_cat_id": 37687,
        "meta_element_set_no": 999,
        "meta_rev_at_epoch": 83284,
        "meta_bstar": 0.0025058041,
        "meta_mean_motion_dot": 4.365e-05,
        "meta_mean_motion_ddot": 0,
        "tle_line1": "1 37687U 99025ELC 25348.90717916  .00004365  00000+0  25058-2 0  9997",
        "tle_line2": "2 37687  98.2067  23.7727 0333373 352.7982 129.6123 13.85346082832840"
      },
      "geometry": {
        "type": "Point",
        "coordinates": [
          -163.5185759754167,
          -44.43392686540254
        ]
      }
    },
    {
      "type": "Feature",
      "properties": {
        "norad_id": 37689,
        "name": "FENGYUN 1C DEB",
        "group": "fengyun-1c-debris",
        "lat": -66.58078797210639,
        "lon": -170.29706444270622,
        "alt_km": 722.8867823135961,
        "timestamp": "2025-12-15T20:48:54.172956+00:00",
        "meta_object_name": "FENGYUN 1C DEB",
        "meta_object_id": "1999-025ELE",
        "meta_epoch": "2025-12-12T02:09:35.469504",
        "meta_mean_motion": 14.48626906,
        "meta_eccentricity": 0.00208176,
        "meta_inclination": 98.92,
        "meta_ra_of_asc_node": 26.9753,
        "meta_arg_of_pericenter": 242.0212,
        "meta_mean_anomaly": 117.8873,
        "meta_ephemeris_type": 0,
        "meta_classification_type": "U",
        "meta_norad_cat_id": 37689,
        "meta_element_set_no": 999,
        "meta_rev_at_epoch": 57803,
        "meta_bstar": 0.0037418292,
        "meta_mean_motion_dot": 0.00014096,
        "meta_mean_motion_ddot": 0,
        "tle_line1": "1 37689U 99025ELE 25346.08999386  .00014096  00000+0  37418-2 0  9994",
        "tle_line2": "2 37689  98.9200  26.9753 0020817 242.0212 117.8873 14.48626906578030"
      },
      "geometry": {
        "type": "Point",
        "coordinates": [
          -170.29706444270622,
          -66.58078797210639
        ]
      }
    },
    {
      "type": "Feature",
      "properties": {
        "norad_id": 37691,
        "name": "FENGYUN 1C DEB",
        "group": "fengyun-1c-debris",
        "lat": 76.09867073694872,
        "lon": -142.93961009477985,
        "alt_km": 594.2120032844896,
        "timestamp": "2025-12-15T20:48:54.172966+00:00",
        "meta_object_name": "FENGYUN 1C DEB",
        "meta_object_id": "1999-025ELG",
        "meta_epoch": "2025-12-14T11:30:11.305728",
        "meta_mean_motion": 14.57709944,
        "meta_eccentricity": 0.02803779,
        "meta_inclination": 98.3722,
        "meta_ra_of_asc_node": 252.1766,
        "meta_arg_of_pericenter": 144.6494,
        "meta_mean_anomaly": 217.3656,
        "meta_ephemeris_type": 0,
        "meta_classification_type": "U",
        "meta_norad_cat_id": 37691,
        "meta_element_set_no": 999,
        "meta_rev_at_epoch": 85659,
        "meta_bstar": 0.0018167166,
        "meta_mean_motion_dot": 0.00014274,
        "meta_mean_motion_ddot": 0,
        "tle_line1": "1 37691U 99025ELG 25348.47929752  .00014274  00000+0  18167-2 0  9990",
        "tle_line2": "2 37691  98.3722 252.1766 0280377 144.6494 217.3656 14.57709944856590"
      },
      "geometry": {
        "type": "Point",
        "coordinates": [
          -142.93961009477985,
          76.09867073694872
        ]
      }
    }
  ]
}